{
  "type": "FeatureCollection",
  "features": [
    {
      "type": "Feature",
      "properties": {
        "norad_id": 66427,
        "name": "STARLINK-35611",
        "group": "last-30-days",
        "lat": -2.572726344334286,
        "lon": -76.33251584841389,
        "alt_km": 415.2300584334034,
        "timestamp": "2025-12-03T13:52:08.345108+00:00",
        "meta_object_name": "STARLINK-35611",
        "meta_object_id": "2025-259F",
        "meta_epoch": "2025-12-03T08:00:01.999872",
        "meta_mean_motion": 15.50547605,
        "meta_eccentricity": 0.00013753,
        "meta_inclination": 43,
        "meta_ra_of_asc_node": 102.3342,
        "meta_arg_of_pericenter": 274.915,
        "meta_mean_anomaly": 342.2556,
        "meta_ephemeris_type": 0,
        "meta_classification_type": "U",
        "meta_norad_cat_id": 66427,
        "meta_element_set_no": 999,
        "meta_rev_at_epoch": 476,
        "meta_bstar": 0.00051293601,
        "meta_mean_motion_dot": 0.00029831,
        "meta_mean_motion_ddot": 0,
        "tle_line1": "1 66427U 25259F   25337.33335648  .00029831  00000+0  51294-3 0  9999",
        "tle_line2": "2 66427  43.0000 102.3342 0001375 274.9150 342.2556 15.50547605  4765"
      },
      "geometry": {
        "type": "Point",
        "coordinates": [
          -76.33251584841389,
          -2.572726344334286
        ]
      }
    },
    {
      "type": "Feature",
      "properties": {
        "norad_id": 66428,
        "name": "STARLINK-35610",
        "group": "last-30-days",
        "lat": -3.8865199918996436,
        "lon": -74.92043618193107,
        "alt_km": 415.105257722802,
        "timestamp": "2025-12-03T13:52:08.345119+00:00",
        "meta_object_name": "STARLINK-35610",
        "meta_object_id": "2025-259G",
        "meta_epoch": "2025-12-03T08:00:01.999872",
        "meta_mean_motion": 15.50621391,
        "meta_eccentricity": 0.00014258,
        "meta_inclination": 43,
        "meta_ra_of_asc_node": 102.3293,
        "meta_arg_of_pericenter": 260.8807,
        "meta_mean_anomaly": 358.1841,
        "meta_ephemeris_type": 0,
        "meta_classification_type": "U",
        "meta_norad_cat_id": 66428,
        "meta_element_set_no": 999,
        "meta_rev_at_epoch": 476,
        "meta_bstar": -0.0017296902,
        "meta_mean_motion_dot": -0.00100672,
        "meta_mean_motion_ddot": 0,
        "tle_line1": "1 66428U 25259G   25337.33335648 -.00100672  00000+0 -17297-2 0  9999",
        "tle_line2": "2 66428  43.0000 102.3293 0001425 260.8807 358.1841 15.50621391  4768"
      },
      "geometry": {
        "type": "Point",
        "coordinates": [
          -74.92043618193107,
          -3.8865199918996436
        ]
      }
    },
    {
      "type": "Feature",
      "properties": {
        "norad_id": 66429,
        "name": "STARLINK-35533",
        "group": "last-30-days",
        "lat": -5.187173500890718,
        "lon": -73.51590601487663,
        "alt_km": 415.45956737533743,
        "timestamp": "2025-12-03T13:52:08.345129+00:00",
        "meta_object_name": "STARLINK-35533",
        "meta_object_id": "2025-259H",
        "meta_epoch": "2025-12-03T08:00:01.999872",
        "meta_mean_motion": 15.50581997,
        "meta_eccentricity": 0.00013783,
        "meta_inclination": 43.0001,
        "meta_ra_of_asc_node": 102.324,
        "meta_arg_of_pericenter": 271.4384,
        "meta_mean_anomaly": 349.5663,
        "meta_ephemeris_type": 0,
        "meta_classification_type": "U",
        "meta_norad_cat_id": 66429,
        "meta_element_set_no": 999,
        "meta_rev_at_epoch": 476,
        "meta_bstar": -0.00096636462,
        "meta_mean_motion_dot": -0.00056631,
        "meta_mean_motion_ddot": 0,
        "tle_line1": "1 66429U 25259H   25337.33335648 -.00056631  00000+0 -96636-3 0  9990",
        "tle_line2": "2 66429  43.0001 102.3240 0001378 271.4384 349.5663 15.50581997  4760"
      },
      "geometry": {
        "type": "Point",
        "coordinates": [
          -73.51590601487663,
          -5.187173500890718
        ]
      }
    },
    {
      "type": "Feature",
      "properties": {
        "norad_id": 66430,
        "name": "STARLINK-35470",
        "group": "last-30-days",
        "lat": -6.488870577269681,
        "lon": -72.09923726434563,
        "alt_km": 415.54743677581973,
        "timestamp": "2025-12-03T13:52:08.345142+00:00",
        "meta_object_name": "STARLINK-35470",
        "meta_object_id": "2025-259J",
        "meta_epoch": "2025-12-03T08:00:01.999872",
        "meta_mean_motion": 15.50605752,
        "meta_eccentricity": 0.00013818,
        "meta_inclination": 43,
        "meta_ra_of_asc_node": 102.3205,
        "meta_arg_of_pericenter": 269.6303,
        "meta_mean_anomaly": 353.284,
        "meta_ephemeris_type": 0,
        "meta_classification_type": "U",
        "meta_norad_cat_id": 66430,
        "meta_element_set_no": 999,
        "meta_rev_at_epoch": 476,
        "meta_bstar": -0.0017064222,
        "meta_mean_motion_dot": -0.00099284,
        "meta_mean_motion_ddot": 0,
        "tle_line1": "1 66430U 25259J   25337.33335648 -.00099284  00000+0 -17064-2 0  9990",
        "tle_line2": "2 66430  43.0000 102.3205 0001381 269.6303 353.2840 15.50605752  4761"
      },
      "geometry": {
        "type": "Point",
        "coordinates": [
          -72.09923726434563,
          -6.488870577269681
        ]
      }
    },
    {
      "type": "Feature",
      "properties": {
        "norad_id": 66431,
        "name": "STARLINK-35439",
        "group": "last-30-days",
        "lat": -7.7888482544999835,
        "lon": -70.67554360503024,
        "alt_km": 415.6108529297826,
        "timestamp": "2025-12-03T13:52:08.345154+00:00",
        "meta_object_name": "STARLINK-35439",
        "meta_object_id": "2025-259K",
        "meta_epoch": "2025-12-03T08:00:01.999872",
        "meta_mean_motion": 15.50607721,
        "meta_eccentricity": 0.00013906,
        "meta_inclination": 43.0001,
        "meta_ra_of_asc_node": 102.3142,
        "meta_arg_of_pericenter": 265.381,
        "meta_mean_anomaly": 359.459,
        "meta_ephemeris_type": 0,
        "meta_classification_type": "U",
        "meta_norad_cat_id": 66431,
        "meta_element_set_no": 999,
        "meta_rev_at_epoch": 476,
        "meta_bstar": -0.0019423211,
        "meta_mean_motion_dot": -0.00112777,
        "meta_mean_motion_ddot": 0,
        "tle_line1": "1 66431U 25259K   25337.33335648 -.00112777  00000+0 -19423-2 0  9995",
        "tle_line2": "2 66431  43.0001 102.3142 0001390 265.3810 359.4590 15.50607721  4767"
      },
      "geometry": {
        "type": "Point",
        "coordinates": [
          -70.67554360503024,
          -7.7888482544999835
        ]
      }
    },
    {
      "type": "Feature",
      "properties": {
        "norad_id": 66432,
        "name": "STARLINK-35446",
        "group": "last-30-days",
        "lat": -9.07154892085664,
        "lon": -69.2564637578447,
        "alt_km": 415.65901364213096,
        "timestamp": "2025-12-03T13:52:08.345170+00:00",
        "meta_object_name": "STARLINK-35446",
        "meta_object_id": "2025-259L",
        "meta_epoch": "2025-12-03T08:00:01.999872",
        "meta_mean_motion": 15.50624916,
        "meta_eccentricity": 0.000147,
        "meta_inclination": 43,
        "meta_ra_of_asc_node": 102.3083,
        "meta_arg_of_pericenter": 265.8617,
        "meta_mean_anomaly": 0.8689,
        "meta_ephemeris_type": 0,
        "meta_classification_type": "U",
        "meta_norad_cat_id": 66432,
        "meta_element_set_no": 999,
        "meta_rev_at_epoch": 476,
        "meta_bstar": -0.001841299,
        "meta_mean_motion_dot": -0.00107072,
        "meta_mean_motion_ddot": 0,
        "tle_line1": "1 66432U 25259L   25337.33335648 -.00107072  00000+0 -18413-2 0  9996",
        "tle_line2": "2 66432  43.0000 102.3083 0001470 265.8617   0.8689 15.50624916  4761"
      },
      "geometry": {
        "type": "Point",
        "coordinates": [
          -69.2564637578447,
          -9.07154892085664
        ]
      }
    },
    {
      "type": "Feature",
      "properties": {
        "norad_id": 66433,
        "name": "STARLINK-35457",
        "group": "last-30-days",
        "lat": -10.355500052097277,
        "lon": -67.81664996706041,
        "alt_km": 415.9720211024014,
        "timestamp": "2025-12-03T13:52:08.345180+00:00",
        "meta_object_name": "STARLINK-35457",
        "meta_object_id": "2025-259M",
        "meta_epoch": "2025-12-03T08:00:01.999872",
        "meta_mean_motion": 15.50587848,
        "meta_eccentricity": 0.00013767,
        "meta_inclination": 43.0001,
        "meta_ra_of_asc_node": 102.3052,
        "meta_arg_of_pericenter": 274.3955,
        "meta_mean_anomaly": 354.2749,
        "meta_ephemeris_type": 0,
        "meta_classification_type": "U",
        "meta_norad_cat_id": 66433,
        "meta_element_set_no": 999,
        "meta_rev_at_epoch": 476,
        "meta_bstar": -0.0011487293,
        "meta_mean_motion_dot": -0.00067177,
        "meta_mean_motion_ddot": 0,
        "tle_line1": "1 66433U 25259M   25337.33335648 -.00067177  00000+0 -11487-2 0  9992",
        "tle_line2": "2 66433  43.0001 102.3052 0001376 274.3955 354.2749 15.50587848  4769"
      },
      "geometry": {
        "type": "Point",
        "coordinates": [
          -67.81664996706041,
          -10.355500052097277
        ]
      }
    }
  ]
}